KUIPER-00125            
1 65954U 25228H   25309.93836802  .00017880  00000+0  53191-3 0  9991
2 65954  51.8790 197.8923 0005435 221.7443 138.3129 15.34785739  4766
KUIPER-00126            
1 65955U 25228J   25309.81268488 -.00219486  00000+0 -67474-2 0  9994
2 65955  51.8794 198.5515 0005684 235.7958 124.2489 15.34011017  4740
KUIPER-00127            
1 65956U 25228K   25309.93359863  .00039318  00000+0  11414-2 0  9991
2 65956  51.8793 197.8665 0005754 212.8681 147.1948 15.35104588  4768
KUIPER-00128            
1 65957U 25228L   25309.93686205  .00016662  00000+0  49495-3 0  9993
2 65957  51.8798 197.8907 0005541 217.5098 142.5502 15.34884632  4760
KUIPER-00129            
1 65958U 25228M   25309.93639946  .00020592  00000+0  60843-3 0  9991
2 65958  51.8796 197.8863 0005700 211.8846 148.1795 15.34900322  4766
KUIPER-00130            
1 65959U 25228N   25309.93976181  .00017716  00000+0  52846-3 0  9995
2 65959  51.8791 197.9013 0005081 228.3857 131.6694 15.34707722  4761
KUIPER-00134            
1 65960U 25228P   25309.94130260  .00018073  00000+0  54064-3 0  9999
2 65960  51.8790 197.9112 0005006 233.2329 126.8198 15.34604450  4767
KUIPER-00135            
1 65961U 25228Q   25309.94097071  .00015763  00000+0  47337-3 0  9990
2 65961  51.8803 197.9177 0004927 220.2802 139.7819 15.34587515  4762
KUIPER-00136            
1 65962U 25228R   25309.93477151  .00016684  00000+0  49424-3 0  9993
2 65962  51.8796 197.8762 0005767 214.1157 145.9459 15.34970490  4768
KUIPER-00137            
1 65963U 25228S   25309.94025817  .00017123  00000+0  51262-3 0  9995
2 65963  51.8803 197.9121 0004863 226.5827 133.4754 15.34619553  4765
KUIPER-00138            
1 65964U 25228T   25309.94299003  .00026863  00000+0  80319-3 0  9992
2 65964  51.8798 197.9240 0006068 240.5471 119.4910 15.34363695  4762
KUIPER-00140            
1 65965U 25228U   25309.94366624  .00018001  00000+0  54128-3 0  9991
2 65965  51.8802 197.9318 0005386 241.4039 118.6405 15.34441793  4763
